[Satellite]
VERSION=1.1
NAME=CZ-6A DEB
NICKNAME=CZ-6A DEB
TLE1=1 54451U 22151GB  22341.47149782  .00002252  00000+0  10007-2 0  9994
TLE2=2 54451  99.0005 347.7503 0084742 260.5994  98.5595 14.22114829  3393
STATUS=0
